BADR-6                  
1 33154U 08034B   24280.54716278  .00000157  00000+0  00000+0 0  9998
2 33154   1.2422  85.9736 0003618  81.2386  71.7233  1.00270778 59552
ECHOSTAR 11             
1 33207U 08035A   24280.52014299 -.00000045  00000+0  00000+0 0  9997
2 33207   0.0424  83.3359 0002635 100.8334 268.7708  1.00272121 45006
SUPERBIRD-C2            
1 33274U 08038A   24280.53566578 -.00000239  00000+0  00000+0 0  9992
2 33274   0.7539  89.1686 0001334 125.4702 137.8586  1.00271327 99521
AMC-21                  
1 33275U 08038B   24280.51718904  .00000048  00000+0  00000+0 0  9990
2 33275   1.3404  88.2448 0002837 105.2920 243.4437  1.00270992 59288
INMARSAT 4-F3           
1 33278U 08039A   24280.45098618 -.00000128  00000+0  00000+0 0  9990
2 33278   3.7903  28.2726 0002971 179.4568 232.2509  1.00272065 40340
NIMIQ 4                 
1 33373U 08044A   24280.52570332 -.00000209  00000+0  00000+0 0  9998
2 33373   0.0204 239.9181 0001569 307.9894 295.0257  1.00273419 58786
GALAXY 19 (G-19)        
1 33376U 08045A   24280.52266250 -.00000128  00000+0  00000+0 0  9993
2 33376   0.0280 263.0137 0002683 284.6831 279.1592  1.00272320 58709
ASTRA 1M                
1 33436U 08057A   24280.54577270  .00000131  00000+0  00000+0 0  9995
2 33436   0.0569  78.7450 0005311  93.0196  59.5996  1.00272161 39533
EUTELSAT HOTBIRD 13C    
1 33459U 08065A   24280.39642531 -.00000088  00000+0  00000+0 0  9997
2 33459   1.3465  86.1673 0005017 120.7530 298.8558  1.00271958 41145
EXPRESS-AM44            
1 33595U 09007A   24280.39677282 -.00000076  00000+0  00000+0 0  9993
2 33595   1.8598  85.9222 0004014 107.3622 314.1358  1.00272216 46080
NSS-9                   
1 33749U 09008A   24280.15888515  .00000083  00000+0  00000+0 0  9999
2 33749   0.0492  53.3542 0002049 133.7508  68.5139  1.00274380 57310
EUTELSAT 33E            
1 33750U 09008B   24280.52330626 -.00000137  00000+0  00000+0 0  9998
2 33750   1.0675  87.4917 0004945 110.2049 270.9805  1.00271701 57242
TELSTAR 11N             
1 34111U 09009A   24280.39147312 -.00000239  00000+0  00000+0 0  9997
2 34111   0.0191 221.8277 0002461 312.9122 304.2096  1.00269920 40046
WGS F2 (USA 204)        
1 34713U 09017A   24280.03382921  .00000079  00000+0  00000+0 0  9993
2 34713   0.0120 199.5307 0001497 110.5093 134.8107  1.00269708 39400
SES-7 (PROTOSTAR 2)     
1 34941U 09027A   24280.54653163 -.00000334  00000+0  00000+0 0  9997
2 34941   0.0892  76.9029 0001494 171.2746  72.5575  1.00272912 56423
MEASAT-3A               
1 35362U 09032A   24280.46738389 -.00000100  00000+0  00000+0 0  9997
2 35362   0.0288 109.2504 0002019 117.6762 116.9171  1.00271824  1824
GOES 14                 
1 35491U 09033A   24280.52040361 -.00000055  00000+0  00000+0 0  9993
2 35491   0.0739  94.2311 0003833  81.4702 278.8235  1.00270861   383
FM-5                    
1 35493U 09034A   24280.31032683 -.00000189  00000+0  00000+0 0  9999
2 35493   0.0308 264.4364 0000650 212.3481 284.2799  1.00273380 40434
TERRESTAR-1             
1 35496U 09035A   24280.51988233 -.00000044  00000+0  00000+0 0  9996
2 35496   4.6429  47.9583 0002962 158.0529 245.8371  1.00272654 55938
ASIASAT 5               
1 35696U 09042A   24280.52675501 -.00000297  00000+0  00000+0 0  9998
2 35696   0.0094 201.3997 0001721 353.3238 111.1111  1.00272589 55509
JCSAT-12 (JCSAT-RA)     
1 35755U 09044A   24280.55395519 -.00000316  00000+0  00000+0 0  9999
2 35755   0.0849  90.1786 0001328  45.3391 211.6924  1.00272381 55401
OPTUS D3                
1 35756U 09044B   24280.59176067 -.00000136  00000+0  00000+0 0  9999
2 35756   0.2906  83.8469 0002321 111.9923 188.9476  1.00271521 55357
NIMIQ 5                 
1 35873U 09050A   24280.52752781 -.00000245  00000+0  00000+0 0  9993
2 35873   0.0483  87.3129 0002876 109.5055 296.1005  1.00272014 55146
AMAZONAS 2              
1 35942U 09054A   24280.52987358 -.00000271  00000+0  00000+0 0  9993
2 35942   0.2050  94.8333 0005110 105.4154 305.4091  1.00270368 54984
COMSATBW-1              
1 35943U 09054B   24280.55446073  .00000035  00000+0  00000+0 0  9998
2 35943   0.0400  76.6319 0003439 135.9600  65.7537  1.00270681 55092
NSS-12                  
1 36032U 09058A   24280.48139432  .00000082  00000+0  00000+0 0  9994
2 36032   0.0859  78.9427 0003463 115.2934  51.7183  1.00272616 54713
THOR 6                  
1 36033U 09058B   24280.32726852  .00000002  00000+0  00000+0 0  9998
2 36033   0.0211 184.7218 0001806 350.3772 317.3926  1.00271620 54801
INTELSAT 14 (IS-14)     
1 36097U 09064A   24280.46149870 -.00000262  00000+0  00000+0 0  9998
2 36097   0.0132 159.9208 0002419  28.5537 308.3131  1.00272442 54407
EUTELSAT 36B            
1 36101U 09065A   24280.54907414  .00000166  00000+0  00000+0 0  9992
2 36101   0.0732 347.4707 0005096 209.4601  52.3259  1.00271892 54509
INTELSAT 15 (IS-15)     
1 36106U 09067A   24280.53382618 -.00000175  00000+0  00000+0 0  9992
2 36106   0.0176 230.5712 0002206 324.4726  97.9989  1.00272660 35025
WGS F3 (USA 211)        
1 36108U 09068A   24280.58574501  .00000084  00000+0  00000+0 0  9992
2 36108   0.1592  87.9652 0003080 168.4870 168.5383  0.99725397 40390
DIRECTV 12              
1 36131U 09075A   24280.21650700 -.00000092  00000+0  00000+0 0  9992
2 36131   0.0056 158.9785 0000083 248.7902 302.8589  1.00272218 40342
BEIDOU-2 G1             
1 36287U 10001A   24280.52252698 -.00000268  00000+0  00000+0 0  9998
2 36287   2.8577  59.2879 0002873 274.6317  10.3432  1.00274030 53960
RADUGA-1M 2             
1 36358U 10002A   24280.53382618 -.00000173  00000+0  00000+0 0  9990
2 36358   2.0029  86.9108 0002946 132.5674  73.4097  1.00272885 43887
SDO                     
1 36395U 10005A   24280.51909903 -.00000045  00000+0  00000+0 0  9992
2 36395  33.3515  95.8512 0001497 165.1968 199.8471  1.00274654 53865
INTELSAT 16 (IS-16)     
1 36397U 10006A   24280.52683277 -.00000233  00000+0  00000+0 0  9998
2 36397   0.0137 226.1491 0002165 333.5932 289.3841  1.00269637 53454
EWS-G2 (GOES 15)        
1 36411U 10008A   24280.55420010  .00000049  00000+0  00000+0 0  9998
2 36411   0.3157 274.4356 0006236 310.4121  51.6636  1.00272545 53442
ECHOSTAR 14             
1 36499U 10010A   24280.08930319  .00000011  00000+0  00000+0 0  9992
2 36499   0.0157 223.6194 0002116 329.2583  95.6432  1.00272404 40345
SES-1                   
1 36516U 10016A   24280.54819674 -.00000103  00000+0  00000+0 0  9992
2 36516   0.0355 289.9296 0002481 262.1642 279.9852  1.00273189 52830
ASTRA 3B                
1 36581U 10021A   24280.54664149  .00000148  00000+0  00000+0 0  9993
2 36581   0.0271 283.4039 0003631 262.5135  50.0909  1.00273772 52673
COMSATBW-2              
1 36582U 10021B   24280.54455637  .00000100  00000+0  00000+0 0  9992
2 36582   0.0555  96.2707 0002836 119.6003   9.0802  1.00274212 52758
BEIDOU-2 G3             
1 36590U 10024A   24280.55776219 -.00000123  00000+0  00000+0 0  9993
2 36590   3.0568  61.7243 0004565 347.7031 246.7247  1.00271443 52567
BADR-5                  
1 36592U 10025A   24280.09007814  .00000156  00000+0  00000+0 0  9998
2 36592   0.0285 149.3172 0005372  31.4393 252.9460  1.00269533 47007
COMS 1                  
1 36744U 10032A   24280.56740590 -.00000332  00000+0  00000+0 0  9999
2 36744   3.2332  83.2042 0000833  92.8480 172.1004  1.00272220 44888
ARABSAT-5A              
1 36745U 10032B   24280.54803160  .00000165  00000+0  00000+0 0  9994
2 36745   0.0726  51.1350 0003891 127.4500  64.8993  1.00272782 52440
ECHOSTAR 15             
1 36792U 10034A   24280.45819726 -.00000270  00000+0  00000+0 0  9991
2 36792   0.0430  84.2524 0002531  73.1410 321.5459  1.00273393 52125
BEIDOU-2 IGSO-1         
1 36828U 10036A   24280.45010980 -.00000086  00000+0  00000+0 0  9993
2 36828  54.2540 168.5635 0040734 203.6480 269.9658  1.00250358 52000
NILESAT 201             
1 36830U 10037A   24280.32605219 -.00000046  00000+0  00000+0 0  9994
2 36830   0.0301 136.2283 0005556  55.5383 294.1126  1.00272203 52167
RASCOM-QAF 1R           
1 36831U 10037B   24280.54247125  .00000030  00000+0  00000+0 0  9999
2 36831   0.0362 114.4838 0006050  94.6251   4.7910  1.00273490 52094
AEHF-1 (USA 214)        
1 36868U 10039A   24280.09007814  .00000159  00000+0  00000+0 0  9992
2 36868   6.6579  75.8887 0003147  93.3876 262.4207  1.00422412 47448
XM-5                    
1 37185U 10053A   24280.20380410 -.00000012  00000+0  00000+0 0  9999
2 37185   0.0393  85.7368 0000445 354.6594 253.1677  1.00271286 51270
BSAT-3B                 
1 37207U 10056B   24280.57802351 -.00000339  00000+0  00000+0 0  9992
2 37207   0.0536  16.2826 0002929 252.4595  64.9527  1.00271499 51073
BEIDOU-2 G4             
1 37210U 10057A   24280.59573698 -.00000099  00000+0  00000+0 0  9991
2 37210   2.1106  69.7698 0008016 165.1678 155.3802  1.00271397 51087
SKYTERRA 1              
1 37218U 10061A   24280.52179370 -.00000105  00000+0  00000+0 0  9994
2 37218   3.8321  49.2007 0004210 186.5675 226.4657  1.00271801 50992
HYLAS 1                 
1 37237U 10065A   24280.54758615 -.00000110  00000+0  00000+0 0  9992
2 37237   4.0569  80.5239 0002053 133.7064 157.3350  1.00272542   680
INTELSAT 17 (IS-17)     
1 37238U 10065B   24280.55506889  .00000009  00000+0  00000+0 0  9994
2 37238   0.0177 220.0440 0002935 352.5961  68.8890  1.00271911 47037
BEIDOU-2 IGSO-2         
1 37256U 10068A   24280.46823656 -.00000180  00000+0  00000+0 0  9992
2 37256  48.6780 279.4604 0039946 218.5003 154.0321  1.00267694 50590
EUTELSAT KA-SAT 9A      
1 37258U 10069A   24280.54368757  .00000072  00000+0  00000+0 0  9999
2 37258   0.0885 286.8981 0000923 264.9127  28.5547  1.00269304 37809
HISPASAT 30W-5          
1 37264U 10070A   24280.05605078 -.00000204  00000+0  00000+0 0  9992
2 37264   0.0382 115.6689 0005305  60.4706 189.2667  1.00273128 46978
